
[{"ORDINAL":"2","COMMENT":"GENERATED VIA SPACETRACK.ORG API","ORIGINATOR":"JSPOC","NORAD_CAT_ID":"40616","OBJECT_NAME":"ARIANE 5 DEB (SYLDA)","OBJECT_TYPE":"DEBRIS","CLASSIFICATION_TYPE":"U","INTLDES":"15022D","EPOCH":"2016-03-23 15:38:49","EPOCH_MICROSECONDS":"367328","MEAN_MOTION":"3.57012906","ECCENTRICITY":"0.6362766","INCLINATION":"5.5425","RA_OF_ASC_NODE":"171.4919","ARG_OF_PERICENTER":"152.0406","MEAN_ANOMALY":"265.6314","EPHEMERIS_TYPE":"0","ELEMENT_SET_NO":"999","REV_AT_EPOCH":"875","BSTAR":"0.0060371","MEAN_MOTION_DOT":"0.00150861","MEAN_MOTION_DDOT":"0","FILE":"2011065","TLE_LINE0":"0 ARIANE 5 DEB (SYLDA)","TLE_LINE1":"1 40616U 15022D   16083.65196027  .00150861  00000-0  60371-2 0  9991","TLE_LINE2":"2 40616   5.5425 171.4919 6362766 152.0406 265.6314  3.57012906  8756","OBJECT_ID":"2015-022D","OBJECT_NUMBER":"40616","SEMIMAJOR_AXIS":"18083.364","PERIOD":"403.346","APOGEE":"23211.250","PERIGEE":"199.207"},{"ORDINAL":"1","COMMENT":"GENERATED VIA SPACETRACK.ORG API","ORIGINATOR":"JSPOC","NORAD_CAT_ID":"40877","OBJECT_NAME":"ARIANE 5 DEB (SYLDA)","OBJECT_TYPE":"DEBRIS","CLASSIFICATION_TYPE":"U","INTLDES":"15039D","EPOCH":"2016-03-23 19:38:53","EPOCH_MICROSECONDS":"620224","MEAN_MOTION":"2.41050028","ECCENTRICITY":"0.7192249","INCLINATION":"4.9084","RA_OF_ASC_NODE":"17.3256","ARG_OF_PERICENTER":"355.7332","MEAN_ANOMALY":"0.404","EPHEMERIS_TYPE":"0","ELEMENT_SET_NO":"999","REV_AT_EPOCH":"498","BSTAR":"0.015102","MEAN_MOTION_DOT":"0.00116109","MEAN_MOTION_DDOT":"0","FILE":"2011166","TLE_LINE0":"0 ARIANE 5 DEB (SYLDA)","TLE_LINE1":"1 40877U 15039D   16083.81867616  .00116109  00000-0  15102-1 0  9993","TLE_LINE2":"2 40877   4.9084  17.3256 7192249 355.7332   0.4040  2.41050028  4980","OBJECT_ID":"2015-039D","OBJECT_NUMBER":"40877","SEMIMAJOR_AXIS":"23496.168","PERIOD":"597.386","APOGEE":"34017.063","PERIGEE":"219.004"},{"ORDINAL":"1","COMMENT":"GENERATED VIA SPACETRACK.ORG API","ORIGINATOR":"JSPOC","NORAD_CAT_ID":"41123","OBJECT_NAME":"BREEZE-M DEB (TANK)","OBJECT_TYPE":"DEBRIS","CLASSIFICATION_TYPE":"U","INTLDES":"15075C","EPOCH":"2016-03-23 19:46:29","EPOCH_MICROSECONDS":"250624","MEAN_MOTION":"2.28216761","ECCENTRICITY":"0.7200444","INCLINATION":"48.7425","RA_OF_ASC_NODE":"68.2888","ARG_OF_PERICENTER":"23.9582","MEAN_ANOMALY":"357.1243","EPHEMERIS_TYPE":"0","ELEMENT_SET_NO":"999","REV_AT_EPOCH":"222","BSTAR":"0.00020574","MEAN_MOTION_DOT":"-3.3e-07","MEAN_MOTION_DDOT":"0","FILE":"2011442","TLE_LINE0":"0 BREEZE-M DEB (TANK)","TLE_LINE1":"1 41123U 15075C   16083.82394966 -.00000033  00000-0  20574-3 0  9992","TLE_LINE2":"2 41123  48.7425  68.2888 7200444  23.9582 357.1243  2.28216761  2229","OBJECT_ID":"2015-075C","OBJECT_NUMBER":"41123","SEMIMAJOR_AXIS":"24368.949","PERIOD":"630.979","APOGEE":"35537.540","PERIGEE":"444.089"},{"ORDINAL":"1","COMMENT":"GENERATED VIA SPACETRACK.ORG API","ORIGINATOR":"JSPOC","NORAD_CAT_ID":"40986","OBJECT_NAME":"BREEZE-M DEB (TANK)","OBJECT_TYPE":"DEBRIS","CLASSIFICATION_TYPE":"U","INTLDES":"15060C","EPOCH":"2016-03-23 20:20:20","EPOCH_MICROSECONDS":"488704","MEAN_MOTION":"3.80565232","ECCENTRICITY":"0.6132709","INCLINATION":"49.1402","RA_OF_ASC_NODE":"263.8587","ARG_OF_PERICENTER":"64.73","MEAN_ANOMALY":"345.4592","EPHEMERIS_TYPE":"0","ELEMENT_SET_NO":"999","REV_AT_EPOCH":"603","BSTAR":"0.00081256","MEAN_MOTION_DOT":"1.879e-05","MEAN_MOTION_DDOT":"0","FILE":"2010993","TLE_LINE0":"0 BREEZE-M DEB (TANK)","TLE_LINE1":"1 40986U 15060C   16083.84745936  .00001879  00000-0  81256-3 0  9993","TLE_LINE2":"2 40986  49.1402 263.8587 6132709  64.7300 345.4592  3.80565232  6031","OBJECT_ID":"2015-060C","OBJECT_NUMBER":"40986","SEMIMAJOR_AXIS":"17329.356","PERIOD":"378.384","APOGEE":"21578.811","PERIGEE":"323.631"},{"ORDINAL":"3","COMMENT":"GENERATED VIA SPACETRACK.ORG API","ORIGINATOR":"JSPOC","NORAD_CAT_ID":"40735","OBJECT_NAME":"ARIANE 5 DEB (SYLDA)","OBJECT_TYPE":"DEBRIS","CLASSIFICATION_TYPE":"U","INTLDES":"15034D","EPOCH":"2016-03-23 22:39:29","EPOCH_MICROSECONDS":"686176","MEAN_MOTION":"2.38355035","ECCENTRICITY":"0.7203547","INCLINATION":"4.1139","RA_OF_ASC_NODE":"344.8131","ARG_OF_PERICENTER":"22.6515","MEAN_ANOMALY":"357.3289","EPHEMERIS_TYPE":"0","ELEMENT_SET_NO":"999","REV_AT_EPOCH":"580","BSTAR":"0.016409","MEAN_MOTION_DOT":"0.00073088","MEAN_MOTION_DDOT":"0","FILE":"2011372","TLE_LINE0":"0 ARIANE 5 DEB (SYLDA)","TLE_LINE1":"1 40735U 15034D   16083.94409359  .00073088  00000-0  16409-1 0  9990","TLE_LINE2":"2 40735   4.1139 344.8131 7203547  22.6515 357.3289  2.38355035  5806","OBJECT_ID":"2015-034D","OBJECT_NUMBER":"40735","SEMIMAJOR_AXIS":"23672.944","PERIOD":"604.140","APOGEE":"34347.727","PERIGEE":"241.892"},{"ORDINAL":"3","COMMENT":"GENERATED VIA SPACETRACK.ORG API","ORIGINATOR":"JSPOC","NORAD_CAT_ID":"40943","OBJECT_NAME":"ARIANE 5 DEB (SYLDA)","OBJECT_TYPE":"DEBRIS","CLASSIFICATION_TYPE":"U","INTLDES":"15054D","EPOCH":"2016-03-24 00:16:02","EPOCH_MICROSECONDS":"617824","MEAN_MOTION":"2.39836847","ECCENTRICITY":"0.7209051","INCLINATION":"6.1584","RA_OF_ASC_NODE":"69.9412","ARG_OF_PERICENTER":"324.6668","MEAN_ANOMALY":"4.0419","EPHEMERIS_TYPE":"0","ELEMENT_SET_NO":"999","REV_AT_EPOCH":"406","BSTAR":"0.01262","MEAN_MOTION_DOT":"0.00152434","MEAN_MOTION_DDOT":"0","FILE":"2011373","TLE_LINE0":"0 ARIANE 5 DEB (SYLDA)","TLE_LINE1":"1 40943U 15054D   16084.01114141  .00152434  00000-0  12620-1 0  9998","TLE_LINE2":"2 40943   6.1584  69.9412 7209051 324.6668   4.0419  2.39836847  4064","OBJECT_ID":"2015-054D","OBJECT_NUMBER":"40943","SEMIMAJOR_AXIS":"23575.336","PERIOD":"600.408","APOGEE":"34192.782","PERIGEE":"201.621"},{"ORDINAL":"1","COMMENT":"GENERATED VIA SPACETRACK.ORG API","ORIGINATOR":"JSPOC","NORAD_CAT_ID":"41024","OBJECT_NAME":"TIANHUI 1-03 DEB","OBJECT_TYPE":"DEBRIS","CLASSIFICATION_TYPE":"U","INTLDES":"15061C","EPOCH":"2016-03-24 01:38:01","EPOCH_MICROSECONDS":"975488","MEAN_MOTION":"14.68612846","ECCENTRICITY":"0.0238427","INCLINATION":"97.3729","RA_OF_ASC_NODE":"191.8546","ARG_OF_PERICENTER":"45.992","MEAN_ANOMALY":"316.0476","EPHEMERIS_TYPE":"0","ELEMENT_SET_NO":"999","REV_AT_EPOCH":"2135","BSTAR":"0.00041923","MEAN_MOTION_DOT":"3.714e-05","MEAN_MOTION_DDOT":"0","FILE":"2011061","TLE_LINE0":"0 TIANHUI 1-03 DEB","TLE_LINE1":"1 41024U 15061C   16084.06807842  .00003714  00000-0  41923-3 0  9995","TLE_LINE2":"2 41024  97.3729 191.8546 0238427  45.9920 316.0476 14.68612846 21353","OBJECT_ID":"2015-061C","OBJECT_NUMBER":"41024","SEMIMAJOR_AXIS":"7043.636","PERIOD":"98.051","APOGEE":"833.441","PERIGEE":"497.562"},{"ORDINAL":"1","COMMENT":"GENERATED VIA SPACETRACK.ORG API","ORIGINATOR":"JSPOC","NORAD_CAT_ID":"41023","OBJECT_NAME":"TIANHUI 1-03 DEB","OBJECT_TYPE":"DEBRIS","CLASSIFICATION_TYPE":"U","INTLDES":"15061B","EPOCH":"2016-03-24 01:59:46","EPOCH_MICROSECONDS":"840128","MEAN_MOTION":"14.74546541","ECCENTRICITY":"0.0211506","INCLINATION":"97.3386","RA_OF_ASC_NODE":"192.4374","ARG_OF_PERICENTER":"36.7782","MEAN_ANOMALY":"324.7527","EPHEMERIS_TYPE":"0","ELEMENT_SET_NO":"999","REV_AT_EPOCH":"2150","BSTAR":"0.00038277","MEAN_MOTION_DOT":"3.608e-05","MEAN_MOTION_DDOT":"0","FILE":"2011323","TLE_LINE0":"0 TIANHUI 1-03 DEB","TLE_LINE1":"1 41023U 15061B   16084.08318102  .00003608  00000-0  38277-3 0  9992","TLE_LINE2":"2 41023  97.3386 192.4374 0211506  36.7782 324.7527 14.74546541 21505","OBJECT_ID":"2015-061B","OBJECT_NUMBER":"41023","SEMIMAJOR_AXIS":"7024.728","PERIOD":"97.657","APOGEE":"795.170","PERIGEE":"498.015"},{"ORDINAL":"1","COMMENT":"GENERATED VIA SPACETRACK.ORG API","ORIGINATOR":"JSPOC","NORAD_CAT_ID":"41041","OBJECT_NAME":"CZ-4B DEB","OBJECT_TYPE":"DEBRIS","CLASSIFICATION_TYPE":"U","INTLDES":"15064D","EPOCH":"2016-03-24 02:41:57","EPOCH_MICROSECONDS":"125472","MEAN_MOTION":"14.80880904","ECCENTRICITY":"0.0227395","INCLINATION":"97.2706","RA_OF_ASC_NODE":"204.6132","ARG_OF_PERICENTER":"79.1464","MEAN_ANOMALY":"283.5134","EPHEMERIS_TYPE":"0","ELEMENT_SET_NO":"999","REV_AT_EPOCH":"1886","BSTAR":"0.00069965","MEAN_MOTION_DOT":"8.411e-05","MEAN_MOTION_DDOT":"0","FILE":"2011167","TLE_LINE0":"0 CZ-4B DEB","TLE_LINE1":"1 41041U 15064D   16084.11246673  .00008411  00000-0  69965-3 0  9997","TLE_LINE2":"2 41041  97.2706 204.6132 0227395  79.1464 283.5134 14.80880904 18861","OBJECT_ID":"2015-064D","OBJECT_NUMBER":"41041","SEMIMAJOR_AXIS":"7004.681","PERIOD":"97.239","APOGEE":"785.829","PERIGEE":"467.263"},{"ORDINAL":"1","COMMENT":"GENERATED VIA SPACETRACK.ORG API","ORIGINATOR":"JSPOC","NORAD_CAT_ID":"41031","OBJECT_NAME":"ARIANE 5 DEB (SYLDA)","OBJECT_TYPE":"DEBRIS","CLASSIFICATION_TYPE":"U","INTLDES":"15065D","EPOCH":"2016-03-24 02:43:39","EPOCH_MICROSECONDS":"733248","MEAN_MOTION":"2.3242419","ECCENTRICITY":"0.7251388","INCLINATION":"3.8645","RA_OF_ASC_NODE":"138.5529","ARG_OF_PERICENTER":"293.288","MEAN_ANOMALY":"9.0105","EPHEMERIS_TYPE":"0","ELEMENT_SET_NO":"999","REV_AT_EPOCH":"306","BSTAR":"0.0050767","MEAN_MOTION_DOT":"0.00023071","MEAN_MOTION_DDOT":"0","FILE":"2011209","TLE_LINE0":"0 ARIANE 5 DEB (SYLDA)","TLE_LINE1":"1 41031U 15065D   16084.11365432  .00023071  00000-0  50767-2 0  9990","TLE_LINE2":"2 41031   3.8645 138.5529 7251388 293.2880   9.0105  2.32424190  3067","OBJECT_ID":"2015-065D","OBJECT_NUMBER":"41031","SEMIMAJOR_AXIS":"24073.964","PERIOD":"619.556","APOGEE":"35152.796","PERIGEE":"238.863"}]